{"type": "FeatureCollection", "features": [ {"type": "Feature", "properties": {"norad_id": 35650, "name": "COSMOS 2251 DEB", "group": "cosmos-2251-debris", "lat": -21.319903372232254, "lon": -146.6256125314597, "alt_km": 629.2559536199715, "timestamp": "2025-12-08T15:42:50.192514+00:00", "meta": {"OBJECT_NAME": "COSMOS 2251 DEB", "OBJECT_ID": "1993-036ANR", "EPOCH": "2025-12-08T03:36:42.003360", "MEAN_MOTION": 14.83439918, "ECCENTRICITY": 0.00144992, "INCLINATION": 74.0459, "RA_OF_ASC_NODE": 27.9616, "ARG_OF_PERICENTER": 77.9788, "MEAN_ANOMALY": 312.1591, "EPHEMERIS_TYPE": 0, "CLASSIFICATION_TYPE": "U", "NORAD_CAT_ID": 35650, "ELEMENT_SET_NO": 999, "REV_AT_EPOCH": 87566, "BSTAR": 0.0019992637, "MEAN_MOTION_DOT": 0.00016459, "MEAN_MOTION_DDOT": 0}, "tle": {"line1": "1 35650U 93036ANR 25342.15048615  .00016459  00000+0  19993-2 0  9993", "line2": "2 35650  74.0459  27.9616 0014499  77.9788 312.1591 14.83439918875668"}}, "geometry": {"type": "Point", "coordinates": [-146.6256125314597, -21.319903372232254]}}, {"type": "Feature", "properties": {"norad_id": 35660, "name": "COSMOS 2251 DEB", "group": "cosmos-2251-debris", "lat": -73.77562100430181, "lon": 61.318698404369826, "alt_km": 720.4494891076101, "timestamp": "2025-12-08T15:42:50.192524+00:00", "meta": {"OBJECT_NAME": "COSMOS 2251 DEB", "OBJECT_ID": "1993-036APB", "EPOCH": "2025-12-07T17:00:01.687104", "MEAN_MOTION": 14.49901725, "ECCENTRICITY": 0.001834, "INCLINATION": 74.0394, "RA_OF_ASC_NODE": 142.6736, "ARG_OF_PERICENTER": 291.9525, "MEAN_ANOMALY": 83.1689, "EPHEMERIS_TYPE": 0, "CLASSIFICATION_TYPE": "U", "NORAD_CAT_ID": 35660, "ELEMENT_SET_NO": 999, "REV_AT_EPOCH": 65798, "BSTAR": 0.00083521949, "MEAN_MOTION_DOT": 3.208e-05, "MEAN_MOTION_DDOT": 0}, "tle": {"line1": "1 35660U 93036APB 25341.70835286  .00003208  00000+0  83522-3 0  9990", "line2": "2 35660  74.0394 142.6736 0018340 291.9525  83.1689 14.49901725657989"}}, "geometry": {"type": "Point", "coordinates": [61.318698404369826, -73.77562100430181]}}, {"type": "Feature", "properties": {"norad_id": 35661, "name": "COSMOS 2251 DEB", "group": "cosmos-2251-debris", "lat": 73.94950881885292, "lon": -177.30395367866524, "alt_km": 613.6824272770773, "timestamp": "2025-12-08T15:42:50.192535+00:00", "meta": {"OBJECT_NAME": "COSMOS 2251 DEB", "OBJECT_ID": "1993-036APC", "EPOCH": "2025-12-07T00:31:55.227936", "MEAN_MOTION": 14.86404912, "ECCENTRICITY": 0.00886648, "INCLINATION": 74.0137, "RA_OF_ASC_NODE": 91.1249, "ARG_OF_PERICENTER": 196.7404, "MEAN_ANOMALY": 163.0846, "EPHEMERIS_TYPE": 0, "CLASSIFICATION_TYPE": "U", "NORAD_CAT_ID": 35661, "ELEMENT_SET_NO": 999, "REV_AT_EPOCH": 87783, "BSTAR": 0.0015419215, "MEAN_MOTION_DOT": 0.00014614, "MEAN_MOTION_DDOT": 0}, "tle": {"line1": "1 35661U 93036APC 25341.02216699  .00014614  00000+0  15419-2 0  9999", "line2": "2 35661  74.0137  91.1249 0088664 196.7404 163.0846 14.86404912877834"}}, "geometry": {"type": "Point", "coordinates": [-177.30395367866524, 73.94950881885292]}}, {"type": "Feature", "properties": {"norad_id": 35663, "name": "COSMOS 2251 DEB", "group": "cosmos-2251-debris", "lat": -68.82841234781898, "lon": 84.81075265870192, "alt_km": 681.7825642447069, "timestamp": "2025-12-08T15:42:50.192545+00:00", "meta": {"OBJECT_NAME": "COSMOS 2251 DEB", "OBJECT_ID": "1993-036APE", "EPOCH": "2025-11-30T11:26:45.384288", "MEAN_MOTION": 14.65332391, "ECCENTRICITY": 0.00074535, "INCLINATION": 74.0171, "RA_OF_ASC_NODE": 148.2949, "ARG_OF_PERICENTER": 219.2944, "MEAN_ANOMALY": 140.7685, "EPHEMERIS_TYPE": 0, "CLASSIFICATION_TYPE": "U", "NORAD_CAT_ID": 35663, "ELEMENT_SET_NO": 999, "REV_AT_EPOCH": 73202, "BSTAR": 0.0015821861, "MEAN_MOTION_DOT": 8.525e-05, "MEAN_MOTION_DDOT": 0}, "tle": {"line1": "1 35663U 93036APE 25334.47691417  .00008525  00000+0  15822-2 0  9999", "line2": "2 35663  74.0171 148.2949 0007453 219.2944 140.7685 14.65332391732024"}}, "geometry": {"type": "Point", "coordinates": [84.81075265870192, -68.82841234781898]}}, {"type": "Feature", "properties": {"norad_id": 35667, "name": "COSMOS 2251 DEB", "group": "cosmos-2251-debris", "lat": 52.728501760754924, "lon": 169.95936905113427, "alt_km": 700.7108492344123, "timestamp": "2025-12-08T15:42:50.192555+00:00", "meta": {"OBJECT_NAME": "COSMOS 2251 DEB", "OBJECT_ID": "1993-036APJ", "EPOCH": "2025-12-08T03:56:45.664224", "MEAN_MOTION": 14.59944075, "ECCENTRICITY": 0.00200745, "INCLINATION": 74.0547, "RA_OF_ASC_NODE": 148.8267, "ARG_OF_PERICENTER": 210.1041, "MEAN_ANOMALY": 149.8973, "EPHEMERIS_TYPE": 0, "CLASSIFICATION_TYPE": "U", "NORAD_CAT_ID": 35667, "ELEMENT_SET_NO": 999, "REV_AT_EPOCH": 70736, "BSTAR": 0.0014176974, "MEAN_MOTION_DOT": 6.791e-05, "MEAN_MOTION_DDOT": 0}, "tle": {"line1": "1 35667U 93036APJ 25342.16441741  .00006791  00000+0  14177-2 0  9996", "line2": "2 35667  74.0547 148.8267 0020074 210.1041 149.8973 14.59944075707366"}}, "geometry": {"type": "Point", "coordinates": [169.95936905113427, 52.728501760754924]}}, {"type": "Feature", "properties": {"norad_id": 35668, "name": "COSMOS 2251 DEB", "group": "cosmos-2251-debris", "lat": 63.012802416498126, "lon": 14.184887167035491, "alt_km": 717.0275699938766, "timestamp": "2025-12-08T15:42:50.192566+00:00", "meta": {"OBJECT_NAME": "COSMOS 2251 DEB", "OBJECT_ID": "1993-036APK", "EPOCH": "2025-12-07T22:48:17.172000", "MEAN_MOTION": 14.63965329, "ECCENTRICITY": 0.00831242, "INCLINATION": 74.0454, "RA_OF_ASC_NODE": 229.7149, "ARG_OF_PERICENTER": 335.9115, "MEAN_ANOMALY": 23.8173, "EPHEMERIS_TYPE": 0, "CLASSIFICATION_TYPE": "U", "NORAD_CAT_ID": 35668, "ELEMENT_SET_NO": 999, "REV_AT_EPOCH": 87577, "BSTAR": 0.00040815606, "MEAN_MOTION_DOT": 2.215e-05, "MEAN_MOTION_DDOT": 0}, "tle": {"line1": "1 35668U 93036APK 25341.95019875  .00002215  00000+0  40816-3 0  9999", "line2": "2 35668  74.0454 229.7149 0083124 335.9115  23.8173 14.63965329875779"}}, "geometry": {"type": "Point", "coordinates": [14.184887167035491, 63.012802416498126]}}, {"type": "Feature", "properties": {"norad_id": 35669, "name": "COSMOS 2251 DEB", "group": "cosmos-2251-debris", "lat": -33.981280924095074, "lon": -2.728475452922837, "alt_km": 913.8149875109257, "timestamp": "2025-12-08T15:42:50.192576+00:00", "meta": {"OBJECT_NAME": "COSMOS 2251 DEB", "OBJECT_ID": "1993-036APL", "EPOCH": "2025-12-03T21:23:42.149184", "MEAN_MOTION": 13.57134195, "ECCENTRICITY": 0.0387239, "INCLINATION": 73.852, "RA_OF_ASC_NODE": 173.7821, "ARG_OF_PERICENTER": 287.3475, "MEAN_ANOMALY": 68.5633, "EPHEMERIS_TYPE": 0, "CLASSIFICATION_TYPE": "U", "NORAD_CAT_ID": 35669, "ELEMENT_SET_NO": 999, "REV_AT_EPOCH": 60669, "BSTAR": 0.0017031, "MEAN_MOTION_DOT": 1.95e-05, "MEAN_MOTION_DDOT": 0}, "tle": {"line1": "1 35669U 93036APL 25337.89146006  .00001950  00000+0  17031-2 0  9992", "line2": "2 35669  73.8520 173.7821 0387239 287.3475  68.5633 13.57134195606690"}}, "geometry": {"type": "Point", "coordinates": [-2.728475452922837, -33.981280924095074]}}, {"type": "Feature", "properties": {"norad_id": 35670, "name": "COSMOS 2251 DEB", "group": "cosmos-2251-debris", "lat": -38.55789918266347, "lon": 59.469294779928184, "alt_km": 585.6303155285605, "timestamp": "2025-12-08T15:42:50.192587+00:00", "meta": {"OBJECT_NAME": "COSMOS 2251 DEB", "OBJECT_ID": "1993-036APM", "EPOCH": "2025-12-08T06:14:58.750080", "MEAN_MOTION": 14.93735365, "ECCENTRICITY": 0.00374942, "INCLINATION": 73.8956, "RA_OF_ASC_NODE": 73.5836, "ARG_OF_PERICENTER": 35.7901, "MEAN_ANOMALY": 324.5783, "EPHEMERIS_TYPE": 0, "CLASSIFICATION_TYPE": "U", "NORAD_CAT_ID": 35670, "ELEMENT_SET_NO": 999, "REV_AT_EPOCH": 87660, "BSTAR": 0.0015958986, "MEAN_MOTION_DOT": 0.0001714, "MEAN_MOTION_DDOT": 0}, "tle": {"line1": "1 35670U 93036APM 25342.26040220  .00017140  00000+0  15959-2 0  9997", "line2": "2 35670  73.8956  73.5836 0037494  35.7901 324.5783 14.93735365876600"}}, "geometry": {"type": "Point", "coordinates": [59.469294779928184, -38.55789918266347]}}, {"type": "Feature", "properties": {"norad_id": 35671, "name": "COSMOS 2251 DEB", "group": "cosmos-2251-debris", "lat": -11.832883896223924, "lon": 83.53169903221001, "alt_km": 732.9889885048933, "timestamp": "2025-12-08T15:42:50.192598+00:00", "meta": {"OBJECT_NAME": "COSMOS 2251 DEB", "OBJECT_ID": "1993-036APN", "EPOCH": "2025-12-08T01:41:30.323040", "MEAN_MOTION": 14.48335009, "ECCENTRICITY": 0.00415086, "INCLINATION": 74.0177, "RA_OF_ASC_NODE": 88.0691, "ARG_OF_PERICENTER": 262.9304, "MEAN_ANOMALY": 279.3066, "EPHEMERIS_TYPE": 0, "CLASSIFICATION_TYPE": "U", "NORAD_CAT_ID": 35671, "ELEMENT_SET_NO": 999, "REV_AT_EPOCH": 86695, "BSTAR": 0.00038167715, "MEAN_MOTION_DOT": 1.415e-05, "MEAN_MOTION_DDOT": 0}, "tle": {"line1": "1 35671U 93036APN 25342.07048985  .00001415  00000+0  38168-3 0  9999", "line2": "2 35671  74.0177  88.0691 0041508 262.9304 279.3066 14.48335009866950"}}, "geometry": {"type": "Point", "coordinates": [83.53169903221001, -11.832883896223924]}}, {"type": "Feature", "properties": {"norad_id": 35674, "name": "COSMOS 2251 DEB", "group": "cosmos-2251-debris", "lat": 39.342624665927985, "lon": 130.67383052272353, "alt_km": 751.1327087982072, "timestamp": "2025-12-08T15:42:50.192608+00:00", "meta": {"OBJECT_NAME": "COSMOS 2251 DEB", "OBJECT_ID": "1993-036APR", "EPOCH": "2025-12-07T09:21:42.969888", "MEAN_MOTION": 14.54069569, "ECCENTRICITY": 0.00960352, "INCLINATION": 74.0599, "RA_OF_ASC_NODE": 326.6095, "ARG_OF_PERICENTER": 12.6395, "MEAN_ANOMALY": 347.7141, "EPHEMERIS_TYPE": 0, "CLASSIFICATION_TYPE": "U", "NORAD_CAT_ID": 35674, "ELEMENT_SET_NO": 999, "REV_AT_EPOCH": 86033, "BSTAR": 0.0029569756, "MEAN_MOTION_DOT": 0.0001327, "MEAN_MOTION_DDOT": 0}, "tle": {"line1": "1 35674U 93036APR 25341.39008067  .00013270  00000+0  29570-2 0  9991", "line2": "2 35674  74.0599 326.6095 0096035  12.6395 347.7141 14.54069569860337"}}, "geometry": {"type": "Point", "coordinates": [130.67383052272353, 39.342624665927985]}}]}